STARLINK-30237
1 57437U 23105H   26092.83335647  .00250179  00000+0  12468-2 0  9991
2 57437  42.9902  88.9368 0019383 139.6926 279.0662 15.80133563  5873
